STARLINK-30114
1 56826U 23079D   26061.16668981  .00100485  00000+0  62829-2 0  9994
2 56826  42.9996 148.2562 0001262 229.5264  13.8414 15.08359187  5763
